NORAD_CAT_ID,OBJECT_NAME,OBJECT_TYPE,EPOCH,MEAN_MOTION,ECCENTRICITY,INCLINATION,RA_OF_ASC_NODE,ARG_OF_PERICENTER,MEAN_ANOMALY,BSTAR,MEAN_MOTION_DOT,MEAN_MOTION_DDOT,TLE_LINE0,TLE_LINE1,TLE_LINE2,SEMIMAJOR_AXIS,PERIOD,APOGEE,PERIGEE,DECAYED
53273.0,STARLINK-4051,PAYLOAD,2022-09-07 14:00:01,15.73182004,0.0001785,53.2162,180.3883,21.1075,3.1167,0.00048291,0.0006765,0.0,0 STARLINK-4051,1 53273U 22086AH  22250.58334491  .00067650  00000-0  48291-3 0  9997,2 53273  53.2162 180.3883 0001785  21.1075   3.1167 15.73182004  1302,6727.946,91.534,351.01199999999994,348.611,0.0
53273.0,STARLINK-4051,PAYLOAD,2022-09-07 22:00:00,15.73281249,0.000186,53.2165,178.7392,26.1926,86.9546,-0.00054987,-0.00077358,0.0,0 STARLINK-4051,1 53273U 22086AH  22250.91667824 -.00077358  00000-0 -54987-3 0  9990,2 53273  53.2165 178.7392 0001860  26.1926  86.9546 15.73281249  7773,6727.6640000000025,91.528,350.78,348.277,0.0
53273.0,STARLINK-4051,PAYLOAD,2022-09-08 14:00:01,15.73178165,0.0002024,53.2172,175.4398,34.5987,256.519,0.00047742,0.00066857,0.0,0 STARLINK-4051,1 53273U 22086AH  22251.58334491  .00066857  00000-0  47742-3 0  9996,2 53273  53.2172 175.4398 0002024  34.5987 256.5190 15.73178165  1309,6727.956999999999,91.534,351.184,348.461,0.0
53273.0,STARLINK-4051,PAYLOAD,2022-09-08 22:00:00,15.7328753,0.0001992,53.2173,173.7908,33.1052,346.9397,-0.00063615,-0.000893,0.0,0 STARLINK-4051,1 53273U 22086AH  22251.91667824 -.00089300  00000-0 -63615-3 0  9999,2 53273  53.2173 173.7908 0001992  33.1052 346.9397 15.73287530  7934,6727.646,91.528,350.851,348.17,0.0
53273.0,STARLINK-4051,PAYLOAD,2022-09-09 14:00:01,15.73203276,0.0001728,53.2168,170.4912,27.8361,170.1346,3.5844e-05,4.413e-05,0.0,0 STARLINK-4051,1 53273U 22086AH  22252.58334491  .00004413  00000-0  35844-4 0  9998,2 53273  53.2168 170.4912 0001728  27.8361 170.1346 15.73203276  1308,6727.886,91.533,350.913,348.588,0.0
53273.0,STARLINK-4051,PAYLOAD,2022-09-09 22:00:00,15.73185426,0.0001861,53.2171,168.8426,34.0631,252.8497,0.000161,0.0002201999999999,0.0,0 STARLINK-4051,1 53273U 22086AH  22252.91667824  .00022020  00000-0  16100-3 0  9991,2 53273  53.2171 168.8426 0001861  34.0631 252.8497 15.73185426  1302,6727.937,91.534,351.05400000000014,348.55,0.0
53273.0,STARLINK-4051,PAYLOAD,2022-09-10 12:00:00,15.73242396,0.0001665999999999,53.2175,165.9558,26.5745,325.9519,-0.00076527,-0.00106865,0.0,0 STARLINK-4051,1 53273U 22086AH  22253.50001157 -.00106865  00000-0 -76527-3 0  9999,2 53273  53.2175 165.9558 0001666  26.5745 325.9519 15.73242396  8174,6727.774,91.531,350.76,348.51800000000014,0.0
53273.0,STARLINK-4051,PAYLOAD,2022-09-10 14:00:01,15.73179171,0.0001621999999999,53.2175,165.5431,23.823,80.9453,-0.00015106,-0.00021747,0.0,0 STARLINK-4051,1 53273U 22086AH  22253.58334491 -.00021747  00000-0 -15106-3 0  9998,2 53273  53.2175 165.5431 0001622  23.8230  80.9453 15.73179171  1304,6727.955,91.534,350.911,348.728,0.0
53273.0,STARLINK-4051,PAYLOAD,2022-09-10 22:00:00,15.73165683,0.0001717,53.2175,163.8946,22.2779,171.3712,0.00016613,0.00022724,0.0,0 STARLINK-4051,1 53273U 22086AH  22253.91667824  .00022724  00000-0  16613-3 0  9992,2 53273  53.2175 163.8946 0001717  22.2779 171.3712 15.73165683  1308,6727.993,91.535,351.01300000000015,348.70300000000015,0.0
53273.0,STARLINK-4051,PAYLOAD,2022-09-11 14:00:01,15.73219622,0.0001646,53.2167,160.5947,29.6693,341.872,0.00013987,0.00019071,0.0,0 STARLINK-4051,1 53273U 22086AH  22254.58334491  .00019071  00000-0  13987-3 0  9999,2 53273  53.2167 160.5947 0001646  29.6693 341.8720 15.73219622  1307,6727.839,91.532,350.81199999999984,348.597,0.0
53273.0,STARLINK-4051,PAYLOAD,2022-09-11 22:00:00,15.73230588,0.0001810999999999,53.2168,158.9464,34.6833,65.8198,-0.00026209,-0.00037291,0.0,0 STARLINK-4051,1 53273U 22086AH  22254.91667824 -.00037291  00000-0 -26209-3 0  9992,2 53273  53.2168 158.9464 0001811  34.6833  65.8198 15.73230588  1305,6727.808000000001,91.531,350.891,348.455,0.0
53273.0,STARLINK-4051,PAYLOAD,2022-09-12 14:00:01,15.73182024,0.0001681,53.217,155.6462,33.4816,244.9019,0.00050519,0.00070826,0.0,0 STARLINK-4051,1 53273U 22086AH  22255.58334491  .00070826  00000-0  50519-3 0  9997,2 53273  53.2170 155.6462 0001681  33.4816 244.9019 15.73182024  1306,6727.946,91.534,350.94199999999995,348.68,0.0
53273.0,STARLINK-4051,PAYLOAD,2022-09-12 22:00:00,15.73229488,0.0001864,53.2169,153.9978,35.9749,331.3547,-0.00026677,-0.00037941,0.0,0 STARLINK-4051,1 53273U 22086AH  22255.91667824 -.00037941  00000-0 -26677-3 0  9994,2 53273  53.2169 153.9978 0001864  35.9749 331.3547 15.73229488  1305,6727.811,91.531,350.93,348.422,0.0
53273.0,STARLINK-4051,PAYLOAD,2022-09-13 06:00:00,15.73208958,0.0001945,53.2163,152.3489,32.9108,63.3665,-0.00026485,-0.00037642,0.0,0 STARLINK-4051,1 53273U 22086AH  22256.25001157 -.00037642  00000-0 -26485-3 0  9998,2 53273  53.2163 152.3489 0001945  32.9108  63.3665 15.73208958  8618,6727.87,91.533,351.043,348.426,0.0
53273.0,STARLINK-4051,PAYLOAD,2022-09-13 14:00:01,15.73128739,0.0001674,53.2163,150.6975,39.27,145.9458,0.00066405,0.00093331,0.0,0 STARLINK-4051,1 53273U 22086AH  22256.58334491  .00093331  00000-0  66405-3 0  9995,2 53273  53.2163 150.6975 0001674  39.2700 145.9458 15.73128739  1300,6728.098000000001,91.537,351.09,348.837,0.0
53273.0,STARLINK-4051,PAYLOAD,2022-09-13 20:00:01,15.73209503,0.0001708,53.2164,149.4615,41.2359,120.6253,-3.2622e-05,-5.198e-05,0.0,0 STARLINK-4051,1 53273U 22086AH  22256.83334491 -.00005198  00000-0 -32622-4 0  9994,2 53273  53.2164 149.4615 0001708  41.2359 120.6253 15.73209503  8702,6727.868,91.533,350.88199999999995,348.584,0.0
53273.0,STARLINK-4051,PAYLOAD,2022-09-13 22:00:00,15.73231175,0.000176,53.2164,149.0496,37.5133,236.5763,-0.00041803,-0.0005896,0.0,0 STARLINK-4051,1 53273U 22086AH  22256.91667824 -.00058960  00000-0 -41803-3 0  9997,2 53273  53.2164 149.0496 0001760  37.5133 236.5763 15.73231175  1303,6727.806,91.531,350.855,348.487,0.0
53273.0,STARLINK-4051,PAYLOAD,2022-09-14 14:00:01,15.73050138,0.0001937,53.2172,145.7323,40.3998,51.5692,0.0016425,0.00234948,0.0,0 STARLINK-4051,1 53273U 22086AH  22257.58334491  .00234948  00000-0  16425-2 0  9993,2 53273  53.2172 145.7323 0001937  40.3998  51.5692 15.73050138  8829,6728.321999999999,91.542,351.491,348.884,0.0
53273.0,STARLINK-4051,PAYLOAD,2022-09-14 20:00:01,15.73205064,0.0002046999999999,53.2177,144.4914,40.9823,27.605,-9.7954e-06,-1.996e-05,0.0,0 STARLINK-4051,1 53273U 22086AH  22257.83334491 -.00001996  00000-0 -97954-5 0  9997,2 53273  53.2177 144.4914 0002047  40.9823  27.6050 15.73205064  8868,6727.880999999999,91.533,351.12300000000016,348.369,0.0
53273.0,STARLINK-4051,PAYLOAD,2022-09-14 22:00:00,15.73202238,0.000207,53.2175,144.0795,40.3443,140.4774,2.7177e-05,3.195e-05,0.0,0 STARLINK-4051,1 53273U 22086AH  22257.91667824  .00003195  00000-0  27177-4 0  9995,2 53273  53.2175 144.0795 0002070  40.3443 140.4774 15.73202238  1306,6727.889,91.533,351.146,348.361,0.0
53273.0,STARLINK-4051,PAYLOAD,2022-09-15 06:00:00,15.73219299,0.0001797,53.2158,142.4516,33.0036,236.8578,-0.00028735,-0.00040789,0.0,0 STARLINK-4051,1 53273U 22086AH  22258.25001157 -.00040789  00000-0 -28735-3 0  9996,2 53273  53.2158 142.4516 0001797  33.0036 236.8578 15.73219299  8924,6727.84,91.532,350.914,348.496,0.0
53273.0,STARLINK-4051,PAYLOAD,2022-09-15 14:00:01,15.731514,0.000164,53.2159,140.8003,43.2758,315.5305,0.00087467,0.0012369999999999,0.0,0 STARLINK-4051,1 53273U 22086AH  22258.58334491  .00123700  00000-0  87467-3 0  9992,2 53273  53.2159 140.8003 0001640  43.2758 315.5305 15.73151400  1306,6728.034000000002,91.536,351.00199999999984,348.795,0.0
53273.0,STARLINK-4051,PAYLOAD,2022-09-15 22:00:00,15.73252898,0.0001754999999999,53.216,139.1527,38.9338,48.7901,8.872e-05,0.00011876,0.0,0 STARLINK-4051,1 53273U 22086AH  22258.91667824  .00011876  00000-0  88720-4 0  9992,2 53273  53.2160 139.1527 0001755  38.9338  48.7901 15.73252898  1302,6727.744000000002,91.53,350.79,348.42900000000014,0.0
53273.0,STARLINK-4051,PAYLOAD,2022-09-16 00:00:00,15.73238714,0.0001809,53.2162,138.7408,37.8177,162.1133,-0.0001965,-0.00028153,0.0,0 STARLINK-4051,1 53273U 22086AH  22259.00001157 -.00028153  00000-0 -19650-3 0  9997,2 53273  53.2162 138.7408 0001809  37.8177 162.1133 15.73238714  9044,6727.785,91.531,350.867,348.43300000000005,0.0
53273.0,STARLINK-4051,PAYLOAD,2022-09-16 06:00:00,15.72986505,0.0001716,53.2164,137.4869,43.2989,133.3938,0.0020974,0.00301794,0.0,0 STARLINK-4051,1 53273U 22086AH  22259.25001157  .00301794  00000-0  20974-2 0  9997,2 53273  53.2164 137.4869 0001716  43.2989 133.3938 15.72986505  9086,6728.504,91.546,351.524,349.214,0.0
53273.0,STARLINK-4051,PAYLOAD,2022-09-16 14:00:01,15.7314305,0.0001571999999999,53.2164,135.8517,39.1424,226.4589,1.0335e-05,8.27e-06,0.0,0 STARLINK-4051,1 53273U 22086AH  22259.58334491  .00000827  00000-0  10335-4 0  9998,2 53273  53.2164 135.8517 0001572  39.1424 226.4589 15.73143050  1300,6728.058000000001,91.536,350.98,348.865,0.0
53273.0,STARLINK-4051,PAYLOAD,2022-09-16 16:00:00,15.73136003,0.0001569,53.2167,135.4396,40.976000000000006,336.8394,0.00012802,0.00017335,0.0,0 STARLINK-4051,1 53273U 22086AH  22259.66667824  .00017335  00000-0  12802-3 0  9998,2 53273  53.2167 135.4396 0001569  40.9760 336.8394 15.73136003  9154,6728.078,91.537,350.99800000000016,348.88699999999994,0.0
53273.0,STARLINK-4051,PAYLOAD,2022-09-16 22:00:00,15.73140408,0.0001732,53.2165,134.2042,34.7692,319.6886,0.00021772,0.00029967,0.0,0 STARLINK-4051,1 53273U 22086AH  22259.91667824  .00029967  00000-0  21772-3 0  9996,2 53273  53.2165 134.2042 0001732  34.7692 319.6886 15.73140408  1302,6728.065,91.537,351.095,348.765,0.0
53273.0,STARLINK-4051,PAYLOAD,2022-09-17 14:00:01,15.73192326,0.0001492,53.2163,130.9038,39.6613,132.576,0.00065653,0.0009251,0.0,0 STARLINK-4051,1 53273U 22086AH  22260.58334491  .00092510  00000-0  65653-3 0  9992,2 53273  53.2163 130.9038 0001492  39.6613 132.5760 15.73192326  1307,6727.917,91.534,350.786,348.778,0.0
